IDEFIX & ARIANE 42P R/B 
1 27422U 02021B   26044.79284962  .00000289  00000+0  12642-3 0  9991
2 27422  98.5845 343.6884 0010626 257.7063 102.2930 14.31008657240603
AQUA                    
1 27424U 02022A   26044.93630473  .00001099  00000+0  22937-3 0  9990
2 27424  98.4129  11.8769 0001331  49.4910  18.3499 14.61916986265267
CZ-4B R/B               
1 27432U 02024C   26044.75054756  .00000039  00000+0  42874-4 0  9991
2 27432  98.8895  98.2715 0051211  91.1760  22.0268 14.14543268225853
MIDORI II (ADEOS-II)    
1 27597U 02056A   26044.72190659  .00000337  00000+0  15043-3 0  9996
2 27597  98.7724   3.0406 0002193  75.4805 284.6620 14.29266968206870
H-2A R/B                
1 27601U 02056E   26044.91065957  .00000305  00000+0  12167-3 0  9994
2 27601  98.3157   6.1878 0069180 231.9217 193.4142 14.33743895210701
CZ-4B R/B               
1 28059U 03049C   26044.93354190  .00000505  00000+0  12750-3 0  9997
2 28059  98.6852  38.9113 0047234 305.1306  54.5467 14.54994374183145
CZ-2C R/B               
1 28222U 04012C   26044.72949085  .00045262  00000+0  52067-3 0  9994
2 28222  97.7299 107.8003 0015422  42.2678 317.9764 15.61738911200532
SL-16 R/B               
1 28353U 04021B   26044.90973808  .00000308  00000+0  18520-3 0  9997
2 28353  70.9991 282.3983 0003142  68.2991 291.8466 14.14592607119475
CZ-4B R/B               
1 28415U 04035C   26044.82305933  .00008075  00000+0  28788-3 0  9996
2 28415  97.3543  79.3559 0033780  55.5379 304.9044 15.28617415176262
CZ-2C R/B               
1 28480U 04046B   26044.71519663  .00000110  00000+0  56313-4 0  9993
2 28480  98.1994 321.1885 0138449 225.4605 133.5203 14.26983647105086
ARIANE 5 R/B            
1 28499U 04049H   26044.91863287  .00000984  00000+0  11450-3 0  9993
2 28499  98.2586 212.4925 0085381  68.4925 292.5365 14.85218227142263
CZ-2D R/B               
1 28738U 05024B   26044.57538476  .00037043  00000+0  49387-3 0  9990
2 28738  97.3616  58.8787 0007655 104.4907 255.7199 15.57999173136029
