CCSDS_OMM_VERS = 2.0
CREATION_DATE  = 
ORIGINATOR     = 

OBJECT_NAME    = IDEFIX & ARIANE 42P R/B
OBJECT_ID      = 2002-021B
CENTER_NAME    = EARTH
REF_FRAME      = TEME
TIME_SYSTEM    = UTC
MEAN_ELEMENT_THEORY = SGP/SGP4

EPOCH          = 2026-02-13T19:01:42.207168
MEAN_MOTION    = 14.31008657
ECCENTRICITY   = .0010626
INCLINATION    = 98.5845
RA_OF_ASC_NODE = 343.6884
ARG_OF_PERICENTER = 257.7063
MEAN_ANOMALY   = 102.2930

EPHEMERIS_TYPE = 0
CLASSIFICATION_TYPE = U
NORAD_CAT_ID   = 27422
ELEMENT_SET_NO = 999
REV_AT_EPOCH   = 24060
BSTAR          = .12641651E-3
MEAN_MOTION_DOT = .289E-5
MEAN_MOTION_DDOT = 0

CCSDS_OMM_VERS = 2.0
CREATION_DATE  = 
ORIGINATOR     = 

OBJECT_NAME    = AQUA
OBJECT_ID      = 2002-022A
CENTER_NAME    = EARTH
REF_FRAME      = TEME
TIME_SYSTEM    = UTC
MEAN_ELEMENT_THEORY = SGP/SGP4

EPOCH          = 2026-02-13T22:28:16.728672
MEAN_MOTION    = 14.61916986
ECCENTRICITY   = .00013318
INCLINATION    = 98.4129
RA_OF_ASC_NODE = 11.8769
ARG_OF_PERICENTER = 49.4910
MEAN_ANOMALY   = 18.3499

EPHEMERIS_TYPE = 0
CLASSIFICATION_TYPE = U
NORAD_CAT_ID   = 27424
ELEMENT_SET_NO = 999
REV_AT_EPOCH   = 26526
BSTAR          = .22937006E-3
MEAN_MOTION_DOT = .1099E-4
MEAN_MOTION_DDOT = 0

CCSDS_OMM_VERS = 2.0
CREATION_DATE  = 
ORIGINATOR     = 

OBJECT_NAME    = CZ-4B R/B
OBJECT_ID      = 2002-024C
CENTER_NAME    = EARTH
REF_FRAME      = TEME
TIME_SYSTEM    = UTC
MEAN_ELEMENT_THEORY = SGP/SGP4

EPOCH          = 2026-02-13T18:00:47.309184
MEAN_MOTION    = 14.14543268
ECCENTRICITY   = .00512114
INCLINATION    = 98.8895
RA_OF_ASC_NODE = 98.2715
ARG_OF_PERICENTER = 91.1760
MEAN_ANOMALY   = 22.0268

EPHEMERIS_TYPE = 0
CLASSIFICATION_TYPE = U
NORAD_CAT_ID   = 27432
ELEMENT_SET_NO = 999
REV_AT_EPOCH   = 22585
BSTAR          = .4287442E-4
MEAN_MOTION_DOT = .39E-6
MEAN_MOTION_DDOT = 0

CCSDS_OMM_VERS = 2.0
CREATION_DATE  = 
ORIGINATOR     = 

OBJECT_NAME    = MIDORI II (ADEOS-II)
OBJECT_ID      = 2002-056A
CENTER_NAME    = EARTH
REF_FRAME      = TEME
TIME_SYSTEM    = UTC
MEAN_ELEMENT_THEORY = SGP/SGP4

EPOCH          = 2026-02-13T17:19:32.729376
MEAN_MOTION    = 14.29266968
ECCENTRICITY   = .00021939
INCLINATION    = 98.7724
RA_OF_ASC_NODE = 3.0406
ARG_OF_PERICENTER = 75.4805
MEAN_ANOMALY   = 284.6620

EPHEMERIS_TYPE = 0
CLASSIFICATION_TYPE = U
NORAD_CAT_ID   = 27597
ELEMENT_SET_NO = 999
REV_AT_EPOCH   = 20687
BSTAR          = .15042771E-3
MEAN_MOTION_DOT = .337E-5
MEAN_MOTION_DDOT = 0

CCSDS_OMM_VERS = 2.0
CREATION_DATE  = 
ORIGINATOR     = 

OBJECT_NAME    = H-2A R/B
OBJECT_ID      = 2002-056E
CENTER_NAME    = EARTH
REF_FRAME      = TEME
TIME_SYSTEM    = UTC
MEAN_ELEMENT_THEORY = SGP/SGP4

EPOCH          = 2026-02-13T21:51:20.986848
MEAN_MOTION    = 14.33743895
ECCENTRICITY   = .00691808
INCLINATION    = 98.3157
RA_OF_ASC_NODE = 6.1878
ARG_OF_PERICENTER = 231.9217
MEAN_ANOMALY   = 193.4142

EPHEMERIS_TYPE = 0
CLASSIFICATION_TYPE = U
NORAD_CAT_ID   = 27601
ELEMENT_SET_NO = 999
REV_AT_EPOCH   = 21070
BSTAR          = .12166626E-3
MEAN_MOTION_DOT = .305E-5
MEAN_MOTION_DDOT = 0

CCSDS_OMM_VERS = 2.0
CREATION_DATE  = 
ORIGINATOR     = 

OBJECT_NAME    = CZ-4B R/B
OBJECT_ID      = 2003-049C
CENTER_NAME    = EARTH
REF_FRAME      = TEME
TIME_SYSTEM    = UTC
MEAN_ELEMENT_THEORY = SGP/SGP4

EPOCH          = 2026-02-13T22:24:18.020160
MEAN_MOTION    = 14.54994374
ECCENTRICITY   = .00472347
INCLINATION    = 98.6852
RA_OF_ASC_NODE = 38.9113
ARG_OF_PERICENTER = 305.1306
MEAN_ANOMALY   = 54.5467

EPHEMERIS_TYPE = 0
CLASSIFICATION_TYPE = U
NORAD_CAT_ID   = 28059
ELEMENT_SET_NO = 999
REV_AT_EPOCH   = 18314
BSTAR          = .12749636E-3
MEAN_MOTION_DOT = .505E-5
MEAN_MOTION_DDOT = 0

CCSDS_OMM_VERS = 2.0
CREATION_DATE  = 
ORIGINATOR     = 

OBJECT_NAME    = CZ-2C R/B
OBJECT_ID      = 2004-012C
CENTER_NAME    = EARTH
REF_FRAME      = TEME
TIME_SYSTEM    = UTC
MEAN_ELEMENT_THEORY = SGP/SGP4

EPOCH          = 2026-02-13T17:30:28.009440
MEAN_MOTION    = 15.61738911
ECCENTRICITY   = .00154224
INCLINATION    = 97.7299
RA_OF_ASC_NODE = 107.8003
ARG_OF_PERICENTER = 42.2678
MEAN_ANOMALY   = 317.9764

EPHEMERIS_TYPE = 0
CLASSIFICATION_TYPE = U
NORAD_CAT_ID   = 28222
ELEMENT_SET_NO = 999
REV_AT_EPOCH   = 20053
BSTAR          = .52067007E-3
MEAN_MOTION_DOT = .45262E-3
MEAN_MOTION_DDOT = 0

CCSDS_OMM_VERS = 2.0
CREATION_DATE  = 
ORIGINATOR     = 

OBJECT_NAME    = SL-16 R/B
OBJECT_ID      = 2004-021B
CENTER_NAME    = EARTH
REF_FRAME      = TEME
TIME_SYSTEM    = UTC
MEAN_ELEMENT_THEORY = SGP/SGP4

EPOCH          = 2026-02-13T21:50:01.370112
MEAN_MOTION    = 14.14592607
ECCENTRICITY   = .00031426
INCLINATION    = 70.9991
RA_OF_ASC_NODE = 282.3983
ARG_OF_PERICENTER = 68.2991
MEAN_ANOMALY   = 291.8466

EPHEMERIS_TYPE = 0
CLASSIFICATION_TYPE = U
NORAD_CAT_ID   = 28353
ELEMENT_SET_NO = 999
REV_AT_EPOCH   = 11947
BSTAR          = .18520236E-3
MEAN_MOTION_DOT = .308E-5
MEAN_MOTION_DDOT = 0

CCSDS_OMM_VERS = 2.0
CREATION_DATE  = 
ORIGINATOR     = 

OBJECT_NAME    = CZ-4B R/B
OBJECT_ID      = 2004-035C
CENTER_NAME    = EARTH
REF_FRAME      = TEME
TIME_SYSTEM    = UTC
MEAN_ELEMENT_THEORY = SGP/SGP4

EPOCH          = 2026-02-13T19:45:12.326112
MEAN_MOTION    = 15.28617415
ECCENTRICITY   = .00337809
INCLINATION    = 97.3543
RA_OF_ASC_NODE = 79.3559
ARG_OF_PERICENTER = 55.5379
MEAN_ANOMALY   = 304.9044

EPHEMERIS_TYPE = 0
CLASSIFICATION_TYPE = U
NORAD_CAT_ID   = 28415
ELEMENT_SET_NO = 999
REV_AT_EPOCH   = 17626
BSTAR          = .28787991E-3
MEAN_MOTION_DOT = .8075E-4
MEAN_MOTION_DDOT = 0

CCSDS_OMM_VERS = 2.0
CREATION_DATE  = 
ORIGINATOR     = 

OBJECT_NAME    = CZ-2C R/B
OBJECT_ID      = 2004-046B
CENTER_NAME    = EARTH
REF_FRAME      = TEME
TIME_SYSTEM    = UTC
MEAN_ELEMENT_THEORY = SGP/SGP4

EPOCH          = 2026-02-13T17:09:52.988832
MEAN_MOTION    = 14.26983647
ECCENTRICITY   = .01384492
INCLINATION    = 98.1994
RA_OF_ASC_NODE = 321.1885
ARG_OF_PERICENTER = 225.4605
MEAN_ANOMALY   = 133.5203

EPHEMERIS_TYPE = 0
CLASSIFICATION_TYPE = U
NORAD_CAT_ID   = 28480
ELEMENT_SET_NO = 999
REV_AT_EPOCH   = 10508
BSTAR          = .56312527E-4
MEAN_MOTION_DOT = .11E-5
MEAN_MOTION_DDOT = 0

CCSDS_OMM_VERS = 2.0
CREATION_DATE  = 
ORIGINATOR     = 

OBJECT_NAME    = ARIANE 5 R/B
OBJECT_ID      = 2004-049H
CENTER_NAME    = EARTH
REF_FRAME      = TEME
TIME_SYSTEM    = UTC
MEAN_ELEMENT_THEORY = SGP/SGP4

EPOCH          = 2026-02-13T22:02:49.879968
MEAN_MOTION    = 14.85218227
ECCENTRICITY   = .00853818
INCLINATION    = 98.2586
RA_OF_ASC_NODE = 212.4925
ARG_OF_PERICENTER = 68.4925
MEAN_ANOMALY   = 292.5365

EPHEMERIS_TYPE = 0
CLASSIFICATION_TYPE = U
NORAD_CAT_ID   = 28499
ELEMENT_SET_NO = 999
REV_AT_EPOCH   = 14226
BSTAR          = .11449709E-3
MEAN_MOTION_DOT = .984E-5
MEAN_MOTION_DDOT = 0

CCSDS_OMM_VERS = 2.0
CREATION_DATE  = 
ORIGINATOR     = 

OBJECT_NAME    = CZ-2D R/B
OBJECT_ID      = 2005-024B
CENTER_NAME    = EARTH
REF_FRAME      = TEME
TIME_SYSTEM    = UTC
MEAN_ELEMENT_THEORY = SGP/SGP4

EPOCH          = 2026-02-13T13:48:33.243264
MEAN_MOTION    = 15.57999173
ECCENTRICITY   = .0007655
INCLINATION    = 97.3616
RA_OF_ASC_NODE = 58.8787
ARG_OF_PERICENTER = 104.4907
MEAN_ANOMALY   = 255.7199

EPHEMERIS_TYPE = 0
CLASSIFICATION_TYPE = U
NORAD_CAT_ID   = 28738
ELEMENT_SET_NO = 999
REV_AT_EPOCH   = 13602
BSTAR          = .49387253E-3
MEAN_MOTION_DOT = .37043E-3
MEAN_MOTION_DDOT = 0

